stk.v.11.0

# WrittenBy    STK_v11.7.1

BEGIN Ephemeris

    NumberOfEphemerisPoints		 2608

    ScenarioEpoch		 16 Jul 2020 03:40:48.000000

# Epoch in JDate format: 2459046.65333333333333
# Epoch in YYDDD format:   20198.15333333333333


    InterpolationMethod		 Lagrange

    InterpolationSamplesM1		 7

    CentralBody		 Earth

    CoordinateSystem		 ICRF

# Time of first point: 16 Jul 2020 03:40:48.000000000 UTCG = 2459046.65333333333333 JDate = 20198.15333333333333 YYDDD

    EphemerisTimePosVel		

 8.0322842999998509e+04  2.2416354212557001e+05 -1.9126823029762348e+06  6.2515904455800587e+06 -4.3406192340286416e+03  6.1487740806171205e+03  2.0339395295070478e+03
 8.0367395999998509e+04  3.0551866634848499e+04 -1.6361768094210729e+06  6.3333541516181631e+06 -4.3486415598067060e+03  6.2607456127924288e+03  1.6356090879937512e+03
 8.0404946999998516e+04 -1.3271990487676440e+05 -1.3995247277364389e+06  6.3884111377198817e+06 -4.3459127751954684e+03  6.3414582233682995e+03  1.2962905989990934e+03
 8.0442271999998513e+04 -2.9474667477938079e+05 -1.1615276838053549e+06  6.4304600733392350e+06 -4.3346038844832192e+03  6.4091329654039928e+03  9.5646633972374514e+02
 8.0482890999998519e+04 -4.7040099773350626e+05 -8.9994022453273414e+05  6.4617632813051529e+06 -4.3125875465897725e+03  6.4684142411627108e+03  5.8454278036078767e+02
 8.0523686999998521e+04 -6.4571390922335221e+05 -6.3509846665560198e+05  6.4779658963901289e+06 -4.2803374530114306e+03  6.5127478620661941e+03  2.0962434976672955e+02
 8.0565555999998527e+04 -8.2405186946138332e+05 -3.6174118828434317e+05  6.4786769451789344e+06 -4.2367550649159784e+03  6.5422924163467596e+03 -1.7566814410549938e+02
 8.0607790999998528e+04 -1.0018752970734652e+06 -8.5087206867955683e+04  6.4630558553493107e+06 -4.1821387793025724e+03  6.5556479620321452e+03 -5.6390255354713963e+02
 8.0650792999998521e+04 -1.1803256172768276e+06  1.9680698352037545e+05  6.4303318160488214e+06 -4.1156782056499451e+03  6.5522390201010630e+03 -9.5774925152021649e+02
 8.0696801999998526e+04 -1.3678203809737994e+06  4.9782327059622470e+05  6.3766230902622659e+06 -4.0326351624029453e+03  6.5295957529624748e+03 -1.3763820812803167e+03
 8.0747236999998524e+04 -1.5686207416494698e+06  8.2604894828850497e+05  6.2957277702053972e+06 -3.9277088753624439e+03  6.4822836745324785e+03 -1.8305719956298612e+03
 8.0800373999998526e+04 -1.7740517673674216e+06  1.1686165281492011e+06  6.1858947516359426e+06 -3.8018349422496030e+03  6.4071636731594863e+03 -2.3020237305595410e+03
 8.0853983999998527e+04 -1.9741180595416341e+06  1.5094921134859826e+06  6.0499350847829320e+06 -3.6593911100501027e+03  6.3053796565822058e+03 -2.7684503547291733e+03
 8.0906458999998533e+04 -2.1621676244148198e+06  1.8372060951676858e+06  5.8929142902688384e+06 -3.5054732898391203e+03  6.1808389755111921e+03 -3.2142177769735285e+03
 8.0958909999998534e+04 -2.3416968663772792e+06  2.1576034008847978e+06  5.7129077172208829e+06 -3.3378874059156537e+03  6.0321925549799416e+03 -3.6473710541679984e+03
 8.1013973999998532e+04 -2.5203272925490718e+06  2.4848825530998935e+06  5.4998920043693911e+06 -3.1478741424681925e+03  5.8507594099349644e+03 -4.0869020124774379e+03
 8.1068069999998537e+04 -2.6852639125903337e+06  2.7960068029306275e+06  5.2675066922541326e+06 -2.9479227164458262e+03  5.6479136682459075e+03 -4.5017354555839520e+03
 8.1118824999998542e+04 -2.8298841530291531e+06  3.0773789476010054e+06  5.0294993066022852e+06 -2.7490825117339737e+03  5.4361542118464749e+03 -4.8741025096625444e+03
 8.1171370999998544e+04 -2.9686939653793485e+06  3.3568059891579999e+06  4.7636607450402286e+06 -2.5325354614421085e+03  5.1958700776381866e+03 -5.2409259197682204e+03
 8.1226313999998543e+04 -3.1013721007191292e+06  3.6348787153021288e+06  4.4656670883805873e+06 -2.2953818870654845e+03  4.9227121804897561e+03 -5.6025879420591928e+03
 8.1284119999998540e+04 -3.2265870193266035e+06  3.9105815887135910e+06  4.1314218438667930e+06 -2.0351253250809282e+03  4.6123830867370643e+03 -5.9572286842764815e+03
 8.1344114999998535e+04 -3.3403201816934501e+06  4.1770543766656490e+06  3.7637158084643846e+06 -1.7546513715142828e+03  4.2669591417420306e+03 -6.2954432191029664e+03
 8.1401444999998537e+04 -3.4330230402965895e+06  4.4117184794702232e+06  3.3942507271601185e+06 -1.4780716916909828e+03  3.9162500307517780e+03 -6.5886059539954649e+03
 8.1453129999998535e+04 -3.5028387554682922e+06  4.6056099630905436e+06  3.0474596548220324e+06 -1.2226379094159347e+03  3.5841603983135669e+03 -6.8265512947424704e+03
 8.1507546999998536e+04 -3.5619354615174509e+06  4.7907971508115027e+06  2.6697937572500422e+06 -9.4857137345411286e+02  3.2196437268828618e+03 -7.0490066173674149e+03
 8.1563143999998530e+04 -3.6067882033351702e+06  4.9591151042476371e+06  2.2722802676329007e+06 -6.6431086252116938e+02  2.8330337440808271e+03 -7.2455560348043682e+03
 8.1615106999998534e+04 -3.6343421420601369e+06  5.0966867038247706e+06  1.8916345097296429e+06 -3.9585413501196842e+02  2.4602271044166901e+03 -7.4003812783303283e+03
 8.1663151999998532e+04 -3.6473670051392899e+06  5.2064323523905622e+06  1.5331555337808146e+06 -1.4617927910049781e+02  2.1069539488643122e+03 -7.5181496789939893e+03
 8.1706373999998526e+04 -3.6488209433413730e+06  5.2905191862303363e+06  1.2063015441191555e+06  7.8925130981736061e+01  1.7830962704783212e+03 -7.6029096403408557e+03
 8.1748004999998520e+04 -3.6410235791783584e+06  5.3581771161100091e+06  8.8841946196121047e+05  2.9559950623653293e+02  1.4665852641938122e+03 -7.6653462333755378e+03
 8.1790493999998522e+04 -3.6237774713911521e+06  5.4135595576080857e+06  5.6171897906557471e+05  5.1602373150662299e+02  1.1397529076615119e+03 -7.7094611268785948e+03
 8.1832575999998517e+04 -3.5974900727893719e+06  5.4546584470836539e+06  2.3671468745759357e+05  7.3305966237280450e+02  8.1310429766251468e+02 -7.7335119699464403e+03
 8.1872834999998522e+04 -3.5638261023673881e+06  5.4810682688248279e+06 -7.4782694694176374e+04  9.3899157101312755e+02  4.9863324931684224e+02 -7.7381647469045374e+03
 8.1910822999998520e+04 -3.5244954383053598e+06  5.4943556993570765e+06 -3.6856123016781261e+05  1.1313452264786647e+03  2.0080117979258227e+02 -7.7260817580997664e+03
 8.1945172999998525e+04 -3.4826746717922422e+06  5.4966214598313840e+06 -6.3356549770102906e+05  1.3032922606530801e+03 -6.8899027904198249e+01 -7.7013946914208827e+03
 8.1982313999998529e+04 -3.4308540474045384e+06  5.4886483476129798e+06 -9.1888226821566932e+05  1.4867305047258674e+03 -3.6037462030070861e+02 -7.6600540582234034e+03
 8.2022116999998529e+04 -3.3678183536847918e+06  5.4680997784700645e+06 -1.2226167367790665e+06  1.6800555518575329e+03 -6.7194403493930236e+02 -7.5989452410341464e+03
 8.2060396999998527e+04 -3.3000039960539327e+06  5.4366644665576378e+06 -1.5121186333193723e+06  1.8623948035463993e+03 -9.7015517224801192e+02 -7.5239000002587700e+03
 8.2098632999998532e+04 -3.2253730350351115e+06  5.3939064888750641e+06 -1.7981179957679790e+06  2.0406255843133777e+03 -1.2659830602890790e+03 -7.4331795907424330e+03
 8.2138082999998529e+04 -3.1413159304217328e+06  5.3379877315512961e+06 -2.0892430165325536e+06  2.2200325381084258e+03 -1.5684053952650734e+03 -7.3232690149295404e+03
 8.2179463999998523e+04 -3.0456457107416834e+06  5.2665857005604208e+06 -2.3896004806646039e+06  2.4028929518154046e+03 -1.8818427454942032e+03 -7.1904497830922883e+03
 8.2223435999998517e+04 -2.9358306464945260e+06  5.1766059166503875e+06 -2.7023237014204226e+06  2.5907245008909476e+03 -2.2098015082316861e+03 -7.0300145420703784e+03
 8.2270473999998518e+04 -2.8093964216130306e+06  5.0645412201599041e+06 -3.0285454265704495e+06  2.7836874696547075e+03 -2.5537908428572964e+03 -6.8368900005785135e+03
 8.2319002999998513e+04 -2.6696616260723146e+06  4.9321667486931719e+06 -3.3550403379162243e+06  2.9735083406516901e+03 -2.9001469940493603e+03 -6.6149987241074705e+03
 8.2368462999998519e+04 -2.5180187608897598e+06  4.7802014311830439e+06 -3.6761531165177249e+06  3.1566394039007000e+03 -3.2430293275859972e+03 -6.3659689852004240e+03
 8.2415124999998516e+04 -2.3668897715050848e+06  4.6215299992919555e+06 -3.9673203370274301e+06  3.3192811801199978e+03 -3.5560811447460374e+03 -6.1106432733986312e+03
 8.2463733999998512e+04 -2.2016460677587320e+06  4.4409832261525113e+06 -4.2574796145635899e+06  3.4776948648825178e+03 -3.8703499198891295e+03 -5.8245074900679874e+03
 8.2514779999998515e+04 -2.0201446195192151e+06  4.2352911553164460e+06 -4.5466797918931833e+06  3.6313863170057684e+03 -4.1862256217776303e+03 -5.5029529694460434e+03
 8.2572823999998509e+04 -1.8046838228006682e+06  3.9823332197681111e+06 -4.8548874378792746e+06  3.7896840781408191e+03 -4.5263415552121005e+03 -5.1125987272919720e+03
 8.2626057999998506e+04 -1.5994366586559308e+06  3.7335011799404044e+06 -5.1170363538224604e+06  3.9188444713211838e+03 -4.8191097766883913e+03 -4.7330240142431749e+03
 8.2679554999998509e+04 -1.3866731910370977e+06  3.4682596363619259e+06 -5.3596047916966155e+06  4.0326673637062217e+03 -5.0936336804135017e+03 -4.3323938004219099e+03
 8.2734807999998506e+04 -1.1610042226572090e+06  3.1794877692181072e+06 -5.5871239271126697e+06  4.1329365447814907e+03 -5.3552771848261718e+03 -3.9001752604356461e+03
 8.2798879999998506e+04 -8.9306537684182660e+05  2.8274115103484388e+06 -5.8204000302506257e+06  4.2266648394192616e+03 -5.6293731198362984e+03 -3.3779840700086816e+03
 8.2847401999998503e+04 -6.8659767870120704e+05  2.5496795867599016e+06 -5.9744343877886347e+06  4.2812286195850975e+03 -5.8150933895490962e+03 -2.9693052431417559e+03
 8.2896498999998497e+04 -4.7534498093340127e+05  2.2599675262317476e+06 -6.1098585775345350e+06  4.3218341743975225e+03 -5.9831464975341014e+03 -2.5457249266083741e+03
 8.2943463999998494e+04 -2.7173037645573309e+05  1.9755710185464374e+06 -6.2197412357092006e+06  4.3468055430423492e+03 -6.1246791311910683e+03 -2.1324022142844929e+03
END Ephemeris
